QIANFAN-49              
1 62250U 24232P   25344.91457434  .00000138  00000+0  19534-3 0  9999
2 62250  89.0029  41.4203 0014102 192.4358 167.6447 13.50978592 67590
QIANFAN-50              
1 62251U 24232Q   25344.93924391  .00000148  00000+0  21035-3 0  9993
2 62251  89.0035  41.4258 0015705 194.5808 165.4892 13.50980093 67624
QIANFAN-51              
1 62252U 24232R   25344.92280843  .00000141  00000+0  19964-3 0  9991
2 62252  89.0029  41.4215 0013077 196.9518 163.1198 13.50978199 67612
QIANFAN-52              
1 62253U 24232S   25344.87754663  .00000124  00000+0  17283-3 0  9995
2 62253  89.0025  41.2997 0015326 190.4504 169.6331 13.50976317 67695
QIANFAN-53              
1 62254U 24232T   25344.93102805  .00000148  00000+0  21090-3 0  9995
2 62254  89.0032  41.3986 0014192 190.8043 169.2806 13.50978707 67660
QIANFAN-54              
1 62255U 24232U   25344.89813411  .00000142  00000+0  20220-3 0  9991
2 62255  89.0023  41.0806 0001501 175.9495 184.1669 13.50978869 99166
QIANFAN-55              
1 62785U 25016A   25344.92424248  .00000191  00000+0  27703-3 0  9997
2 62785  88.9778 103.3968 0016751 359.0324   1.0792 13.50986688 46949
QIANFAN-56              
1 62786U 25016B   25344.86657885  .00000182  00000+0  26401-3 0  9990
2 62786  88.9752 103.2397 0015481   2.1375 357.9840 13.50977840 46989
